ONEWEB-0629             
1 55170U 23004AG  26089.82331063  .00000001  00000+0 -31278-4 0  9994
2 55170  87.9180  21.4339 0001662  88.5508 271.5814 13.17649986157267
ONEWEB-0631             
1 55171U 23004AH  26089.79658220 -.00000004  00000+0 -42775-4 0  9996
2 55171  87.9245 351.0138 0001887  63.5970 296.5356 13.18688696159345
ONEWEB-0709             
1 55172U 23004AJ  26089.84757741  .00000358  00000+0  97434-3 0  9992
2 55172  87.8895  36.6536 0002611  68.3214 291.8192 13.11416118155606
ONEWEB-0710             
1 55173U 23004AK  26089.83764995 -.00000029  00000+0 -10885-3 0  9993
2 55173  87.9180  21.4259 0001675  75.1275 285.0042 13.17649982157267
ONEWEB-0711             
1 55174U 23004AL  26089.81873075 -.00000031  00000+0 -12330-3 0  9992
2 55174  87.8908  36.6433 0001197  66.1178 294.0075 13.11420192155569
ONEWEB-0713             
1 55175U 23004AM  26089.91369184  .00000574  00000+0  15834-2 0  9996
2 55175  87.8908  36.6240 0001503  73.4368 286.6925 13.11418045155564
ONEWEB-0715             
1 55176U 23004AN  26089.83230724  .00000460  00000+0  12631-2 0  9991
2 55176  87.8908  36.6397 0002262  62.2723 297.8634 13.11418622155597
ONEWEB-0716             
1 55177U 23004AP  26089.83090966 -.00000017  00000+0 -76315-4 0  9995
2 55177  87.9182  21.4280 0001979  84.5477 275.5880 13.17650897157263
ONEWEB-0717             
1 55178U 23004AQ  26089.81403051  .00000017  00000+0  10969-4 0  9998
2 55178  87.9192  21.4129 0001312  60.7377 299.3886 13.17650236157316
ONEWEB-0719             
1 55179U 23004AR  26089.82415558 -.00000013  00000+0 -65944-4 0  9996
2 55179  87.9190  21.3922 0001830  84.7814 275.3526 13.17650036157269
ONEWEB-0530             
1 55796U 23029A   26089.83369268  .00000027  00000+0  33591-4 0  9991
2 55796  87.9133 290.1215 0001189  94.5984 265.5285 13.20771417150803
ONEWEB-0534             
1 55797U 23029B   26089.82106790  .00000040  00000+0  65758-4 0  9995
2 55797  87.9138 290.1228 0001739  92.0935 268.0397 13.20771606150805
ONEWEB-0556             
1 55798U 23029C   26089.60010755  .00000029  00000+0  38482-4 0  9998
2 55798  87.9133 290.1687 0001917 118.2659 241.8668 13.20772253150777
ONEWEB-0562             
1 55799U 23029D   26089.51172598  .00000067  00000+0  13207-3 0  9992
2 55799  87.9136 290.1667 0001066 117.1984 242.9258 13.20771239150762
ONEWEB-0563             
1 55800U 23029E   26089.80843786  .00000049  00000+0  88628-4 0  9991
2 55800  87.9134 290.1379 0001885  95.6442 264.4907 13.20769653150791
ONEWEB-0564             
1 55801U 23029F   26089.80213003  .00000053  00000+0  97652-4 0  9997
2 55801  87.9136 290.1114 0001351  95.3782 264.7505 13.20771243150800
