[{"OBJECT_NAME":"ONEWEB-0629","OBJECT_ID":"2023-004AG","EPOCH":"2026-03-30T19:45:34.038432","MEAN_MOTION":13.17649986,"ECCENTRICITY":0.0001662,"INCLINATION":87.918,"RA_OF_ASC_NODE":21.4339,"ARG_OF_PERICENTER":88.5508,"MEAN_ANOMALY":271.5814,"EPHEMERIS_TYPE":0,"CLASSIFICATION_TYPE":"U","NORAD_CAT_ID":55170,"ELEMENT_SET_NO":999,"REV_AT_EPOCH":15726,"BSTAR":-3.1278e-05,"MEAN_MOTION_DOT":1e-08,"MEAN_MOTION_DDOT":0.0},{"OBJECT_NAME":"ONEWEB-0631","OBJECT_ID":"2023-004AH","EPOCH":"2026-03-30T19:07:04.702080","MEAN_MOTION":13.18688696,"ECCENTRICITY":0.0001887,"INCLINATION":87.9245,"RA_OF_ASC_NODE":351.0138,"ARG_OF_PERICENTER":63.597,"MEAN_ANOMALY":296.5356,"EPHEMERIS_TYPE":0,"CLASSIFICATION_TYPE":"U","NORAD_CAT_ID":55171,"ELEMENT_SET_NO":999,"REV_AT_EPOCH":15934,"BSTAR":-4.2775e-05,"MEAN_MOTION_DOT":-4e-08,"MEAN_MOTION_DDOT":0.0},{"OBJECT_NAME":"ONEWEB-0709","OBJECT_ID":"2023-004AJ","EPOCH":"2026-03-30T20:20:30.688224","MEAN_MOTION":13.11416118,"ECCENTRICITY":0.0002611,"INCLINATION":87.8895,"RA_OF_ASC_NODE":36.6536,"ARG_OF_PERICENTER":68.3214,"MEAN_ANOMALY":291.8192,"EPHEMERIS_TYPE":0,"CLASSIFICATION_TYPE":"U","NORAD_CAT_ID":55172,"ELEMENT_SET_NO":999,"REV_AT_EPOCH":15560,"BSTAR":0.00097434,"MEAN_MOTION_DOT":3.58e-06,"MEAN_MOTION_DDOT":0.0},{"OBJECT_NAME":"ONEWEB-0710","OBJECT_ID":"2023-004AK","EPOCH":"2026-03-30T20:06:12.955680","MEAN_MOTION":13.17649982,"ECCENTRICITY":0.0001675,"INCLINATION":87.918,"RA_OF_ASC_NODE":21.4259,"ARG_OF_PERICENTER":75.1275,"MEAN_ANOMALY":285.0042,"EPHEMERIS_TYPE":0,"CLASSIFICATION_TYPE":"U","NORAD_CAT_ID":55173,"ELEMENT_SET_NO":999,"REV_AT_EPOCH":15726,"BSTAR":-0.00010885,"MEAN_MOTION_DOT":-2.9e-07,"MEAN_MOTION_DDOT":0.0},{"OBJECT_NAME":"ONEWEB-0711","OBJECT_ID":"2023-004AL","EPOCH":"2026-03-30T19:38:58.336800","MEAN_MOTION":13.11420192,"ECCENTRICITY":0.0001197,"INCLINATION":87.8908,"RA_OF_ASC_NODE":36.6433,"ARG_OF_PERICENTER":66.1178,"MEAN_ANOMALY":294.0075,"EPHEMERIS_TYPE":0,"CLASSIFICATION_TYPE":"U","NORAD_CAT_ID":55174,"ELEMENT_SET_NO":999,"REV_AT_EPOCH":15556,"BSTAR":-0.00012330000000000002,"MEAN_MOTION_DOT":-3.1e-07,"MEAN_MOTION_DDOT":0.0},{"OBJECT_NAME":"ONEWEB-0713","OBJECT_ID":"2023-004AM","EPOCH":"2026-03-30T21:55:42.974976","MEAN_MOTION":13.11418045,"ECCENTRICITY":0.0001503,"INCLINATION":87.8908,"RA_OF_ASC_NODE":36.624,"ARG_OF_PERICENTER":73.4368,"MEAN_ANOMALY":286.6925,"EPHEMERIS_TYPE":0,"CLASSIFICATION_TYPE":"U","NORAD_CAT_ID":55175,"ELEMENT_SET_NO":999,"REV_AT_EPOCH":15556,"BSTAR":0.0015834000000000002,"MEAN_MOTION_DOT":5.74e-06,"MEAN_MOTION_DDOT":0.0},{"OBJECT_NAME":"ONEWEB-0715","OBJECT_ID":"2023-004AN","EPOCH":"2026-03-30T19:58:31.345536","MEAN_MOTION":13.11418622,"ECCENTRICITY":0.0002262,"INCLINATION":87.8908,"RA_OF_ASC_NODE":36.6397,"ARG_OF_PERICENTER":62.2723,"MEAN_ANOMALY":297.8634,"EPHEMERIS_TYPE":0,"CLASSIFICATION_TYPE":"U","NORAD_CAT_ID":55176,"ELEMENT_SET_NO":999,"REV_AT_EPOCH":15559,"BSTAR":0.0012631,"MEAN_MOTION_DOT":4.6e-06,"MEAN_MOTION_DDOT":0.0},{"OBJECT_NAME":"ONEWEB-0716","OBJECT_ID":"2023-004AP","EPOCH":"2026-03-30T19:56:30.594624","MEAN_MOTION":13.17650897,"ECCENTRICITY":0.0001979,"INCLINATION":87.9182,"RA_OF_ASC_NODE":21.428,"ARG_OF_PERICENTER":84.5477,"MEAN_ANOMALY":275.588,"EPHEMERIS_TYPE":0,"CLASSIFICATION_TYPE":"U","NORAD_CAT_ID":55177,"ELEMENT_SET_NO":999,"REV_AT_EPOCH":15726,"BSTAR":-7.6315e-05,"MEAN_MOTION_DOT":-1.7e-07,"MEAN_MOTION_DDOT":0.0},{"OBJECT_NAME":"ONEWEB-0717","OBJECT_ID":"2023-004AQ","EPOCH":"2026-03-30T19:32:12.236064","MEAN_MOTION":13.17650236,"ECCENTRICITY":0.0001312,"INCLINATION":87.9192,"RA_OF_ASC_NODE":21.4129,"ARG_OF_PERICENTER":60.7377,"MEAN_ANOMALY":299.3886,"EPHEMERIS_TYPE":0,"CLASSIFICATION_TYPE":"U","NORAD_CAT_ID":55178,"ELEMENT_SET_NO":999,"REV_AT_EPOCH":15731,"BSTAR":1.0969e-05,"MEAN_MOTION_DOT":1.7e-07,"MEAN_MOTION_DDOT":0.0},{"OBJECT_NAME":"ONEWEB-0719","OBJECT_ID":"2023-004AR","EPOCH":"2026-03-30T19:46:47.042112","MEAN_MOTION":13.17650036,"ECCENTRICITY":0.000183,"INCLINATION":87.919,"RA_OF_ASC_NODE":21.3922,"ARG_OF_PERICENTER":84.7814,"MEAN_ANOMALY":275.3526,"EPHEMERIS_TYPE":0,"CLASSIFICATION_TYPE":"U","NORAD_CAT_ID":55179,"ELEMENT_SET_NO":999,"REV_AT_EPOCH":15726,"BSTAR":-6.5944e-05,"MEAN_MOTION_DOT":-1.3e-07,"MEAN_MOTION_DDOT":0.0},{"OBJECT_NAME":"ONEWEB-0530","OBJECT_ID":"2023-029A","EPOCH":"2026-03-30T20:00:31.047552","MEAN_MOTION":13.20771417,"ECCENTRICITY":0.0001189,"INCLINATION":87.9133,"RA_OF_ASC_NODE":290.1215,"ARG_OF_PERICENTER":94.5984,"MEAN_ANOMALY":265.5285,"EPHEMERIS_TYPE":0,"CLASSIFICATION_TYPE":"U","NORAD_CAT_ID":55796,"ELEMENT_SET_NO":999,"REV_AT_EPOCH":15080,"BSTAR":3.3591e-05,"MEAN_MOTION_DOT":2.7e-07,"MEAN_MOTION_DDOT":0.0},{"OBJECT_NAME":"ONEWEB-0534","OBJECT_ID":"2023-029B","EPOCH":"2026-03-30T19:42:20.266560","MEAN_MOTION":13.20771606,"ECCENTRICITY":0.0001739,"INCLINATION":87.9138,"RA_OF_ASC_NODE":290.1228,"ARG_OF_PERICENTER":92.0935,"MEAN_ANOMALY":268.0397,"EPHEMERIS_TYPE":0,"CLASSIFICATION_TYPE":"U","NORAD_CAT_ID":55797,"ELEMENT_SET_NO":999,"REV_AT_EPOCH":15080,"BSTAR":6.5758e-05,"MEAN_MOTION_DOT":4e-07,"MEAN_MOTION_DDOT":0.0},{"OBJECT_NAME":"ONEWEB-0556","OBJECT_ID":"2023-029C","EPOCH":"2026-03-30T14:24:09.292320","MEAN_MOTION":13.20772253,"ECCENTRICITY":0.0001917,"INCLINATION":87.9133,"RA_OF_ASC_NODE":290.1687,"ARG_OF_PERICENTER":118.2659,"MEAN_ANOMALY":241.8668,"EPHEMERIS_TYPE":0,"CLASSIFICATION_TYPE":"U","NORAD_CAT_ID":55798,"ELEMENT_SET_NO":999,"REV_AT_EPOCH":15077,"BSTAR":3.8482e-05,"MEAN_MOTION_DOT":2.9e-07,"MEAN_MOTION_DDOT":0.0},{"OBJECT_NAME":"ONEWEB-0562","OBJECT_ID":"2023-029D","EPOCH":"2026-03-30T12:16:53.124672","MEAN_MOTION":13.20771239,"ECCENTRICITY":0.0001066,"INCLINATION":87.9136,"RA_OF_ASC_NODE":290.1667,"ARG_OF_PERICENTER":117.1984,"MEAN_ANOMALY":242.9258,"EPHEMERIS_TYPE":0,"CLASSIFICATION_TYPE":"U","NORAD_CAT_ID":55799,"ELEMENT_SET_NO":999,"REV_AT_EPOCH":15076,"BSTAR":0.00013207,"MEAN_MOTION_DOT":6.7e-07,"MEAN_MOTION_DDOT":0.0},{"OBJECT_NAME":"ONEWEB-0563","OBJECT_ID":"2023-029E","EPOCH":"2026-03-30T19:24:09.031104","MEAN_MOTION":13.20769653,"ECCENTRICITY":0.0001885,"INCLINATION":87.9134,"RA_OF_ASC_NODE":290.1379,"ARG_OF_PERICENTER":95.6442,"MEAN_ANOMALY":264.4907,"EPHEMERIS_TYPE":0,"CLASSIFICATION_TYPE":"U","NORAD_CAT_ID":55800,"ELEMENT_SET_NO":999,"REV_AT_EPOCH":15079,"BSTAR":8.8628e-05,"MEAN_MOTION_DOT":4.9e-07,"MEAN_MOTION_DDOT":0.0},{"OBJECT_NAME":"ONEWEB-0564","OBJECT_ID":"2023-029F","EPOCH":"2026-03-30T19:15:04.034592","MEAN_MOTION":13.20771243,"ECCENTRICITY":0.0001351,"INCLINATION":87.9136,"RA_OF_ASC_NODE":290.1114,"ARG_OF_PERICENTER":95.3782,"MEAN_ANOMALY":264.7505,"EPHEMERIS_TYPE":0,"CLASSIFICATION_TYPE":"U","NORAD_CAT_ID":55801,"ELEMENT_SET_NO":999,"REV_AT_EPOCH":15080,"BSTAR":9.7652e-05,"MEAN_MOTION_DOT":5.3e-07,"MEAN_MOTION_DDOT":0.0}]